[{"OBJECT_NAME":"STARLINK-6196","OBJECT_ID":"2023-064AR","EPOCH":"2026-03-09T11:19:27.284448","MEAN_MOTION":14.98333961,"ECCENTRICITY":0.00036414,"INCLINATION":70.0005,"RA_OF_ASC_NODE":104.8614,"ARG_OF_PERICENTER":271.9465,"MEAN_ANOMALY":88.1277,"EPHEMERIS_TYPE":0,"CLASSIFICATION_TYPE":"U","NORAD_CAT_ID":56487,"ELEMENT_SET_NO":999,"REV_AT_EPOCH":15620,"BSTAR":0.00024760709,"MEAN_MOTION_DOT":2.863e-5,"MEAN_MOTION_DDOT":0},{"OBJECT_NAME":"CZ-6A DEB","OBJECT_ID":"2022-151UT","EPOCH":"2026-03-09T17:50:02.810976","MEAN_MOTION":14.9898329,"ECCENTRICITY":0.00453187,"INCLINATION":98.6222,"RA_OF_ASC_NODE":145.5138,"ARG_OF_PERICENTER":180.208,"MEAN_ANOMALY":179.9129,"EPHEMERIS_TYPE":0,"CLASSIFICATION_TYPE":"U","NORAD_CAT_ID":55003,"ELEMENT_SET_NO":999,"REV_AT_EPOCH":17561,"BSTAR":0.0047870048,"MEAN_MOTION_DOT":0.00059614,"MEAN_MOTION_DDOT":0}]
